      2.10          N: GNSS NAV DATA                        RINEX VERSION / TYPE
fic2rin                                 07/28/2022 00:17:40 PGM / RUN BY / DATE
                                                            END OF HEADER
8  22  7 27  1 59 44.0 -.778823159635D-04 -.159161572810D-11  .000000000000D+00
     .400000000000D+01  .130437500000D+03  .412267172583D-08 -.258726213017D+01
     .671483576298D-05  .738924078178D-02  .671856105328D-05  .515357095718D+04
     .266384000000D+06 -.279396772385D-07  .409151195932D+00 -.316649675369D-07
     .963109766576D+00  .252281250000D+03  .167118202287D+00 -.784675542029D-08
     .116790579082D-09  .100000000000D+01  .222000000000D+04  .000000000000D+00
     .240000000000D+01  .000000000000D+00  .512227416039D-08  .400000000000D+01
     .259200000000D+06  .400000000000D+01
32 22  7 27 10  0  0.0 -.187299679965D-03 -.102318153949D-10  .000000000000D+00
     .330000000000D+02 -.192187500000D+02  .424374819772D-08  .234990530589D+01
    -.895932316780D-06  .603909872007D-02  .989623367786D-05  .515362593460D+04
     .295200000000D+06 -.353902578354D-07 -.271818597344D+01 -.109896063805D-06
     .958743422780D+00  .184687500000D+03 -.228281345141D+01 -.767567686561D-08
     .625740350312D-09  .100000000000D+01  .222000000000D+04  .000000000000D+00
     .240000000000D+01  .000000000000D+00  .465661287308D-09  .330000000000D+02
     .288000000000D+06  .400000000000D+01
30 22  7 27 10  0  0.0 -.534842722118D-03 -.682121026330D-12  .000000000000D+00
     .100000000000D+03  .221875000000D+01  .543058334845D-08 -.130698708949D+01
     .279396772385D-07  .596007029526D-02  .436231493950D-05  .515372621727D+04
     .295200000000D+06  .968575477600D-07 -.164757672345D+01 -.353902578354D-07
     .935340962808D+00  .276437500000D+03 -.265589226057D+01 -.839570685775D-08
     .192508018732D-09  .100000000000D+01  .222000000000D+04  .000000000000D+00
     .240000000000D+01  .000000000000D+00  .372529029846D-08  .100000000000D+03
     .288000000000D+06  .400000000000D+01
21 22  7 27 10  0  0.0  .160912051797D-03 -.227373675443D-12  .000000000000D+00
     .580000000000D+02  .334687500000D+02  .468590947265D-08  .172205558863D+01
     .149197876453D-05  .242827064358D-01 -.100210309029D-05  .515372743797D+04
     .295200000000D+06  .355765223503D-06  .139726400554D+01  .949949026108D-07
     .960286186928D+00  .386062500000D+03 -.919025072580D+00 -.824462913618D-08
    -.290012080167D-09  .100000000000D+01  .222000000000D+04  .000000000000D+00
     .240000000000D+01  .000000000000D+00 -.102445483208D-07  .580000000000D+02
     .288000000000D+06  .400000000000D+01
24 22  7 27 10  0  0.0  .185823533684D-03 -.105728759081D-10  .000000000000D+00
     .800000000000D+02  .459375000000D+01  .560987653102D-08 -.254598144783D+00
     .409781932831D-06  .126848216169D-01  .481121242046D-05  .515366888428D+04
     .295200000000D+06  .242143869400D-07 -.174380292649D+01  .163912773132D-06
     .933741781225D+00  .275875000000D+03  .823610413102D+00 -.866786105120D-08
     .166792661870D-09  .100000000000D+01  .222000000000D+04  .000000000000D+00
     .240000000000D+01  .000000000000D+00  .279396772385D-08  .800000000000D+02
     .288000000000D+06  .400000000000D+01
13 22  7 27 10  0  0.0  .356412958354D-03  .727595761418D-11  .000000000000D+00
     .550000000000D+02  .531250000000D+00  .417910264783D-08  .120614903574D+01
    -.335276126862D-07  .618264032528D-02  .921636819839D-05  .515367834282D+04
     .295200000000D+06 -.894069671631D-07 -.257468070992D+01 -.186264514923D-08
     .969082344684D+00  .206125000000D+03  .917875596403D+00 -.779711049523D-08
     .525021869268D-09  .100000000000D+01  .222000000000D+04  .000000000000D+00
     .240000000000D+01  .000000000000D+00 -.111758708954D-07  .550000000000D+02
     .288000000000D+06  .400000000000D+01
17 22  7 27 10  0  0.0  .641635619104D-03  .432009983342D-11  .000000000000D+00
     .300000000000D+02  .115718750000D+03  .405766901820D-08  .165613132125D+01
     .576861202717D-05  .135725488653D-01  .736489892006D-05  .515359026718D+04
     .295200000000D+06  .109896063805D-06  .493236537967D+00 -.318512320518D-06
     .978371416594D+00  .242562500000D+03 -.148789387984D+01 -.769960643380D-08
     .992898501065D-10  .100000000000D+01  .222000000000D+04  .000000000000D+00
     .240000000000D+01  .000000000000D+00 -.111758708954D-07  .300000000000D+02
     .288000000000D+06  .400000000000D+01
27 22  7 27 10  0  0.0  .220875255764D-03 -.341060513165D-12  .000000000000D+00
     .810000000000D+02  .135718750000D+03  .426160608443D-08  .165776577818D+01
     .702962279320D-05  .105175678618D-01  .765547156334D-05  .515366402817D+04
     .295200000000D+06 -.275671482086D-06  .429678786349D+00  .113621354103D-06
     .971871611588D+00  .238312500000D+03  .690677480072D+00 -.795175979414D-08
     .107147320259D-09  .100000000000D+01  .222000000000D+04  .000000000000D+00
     .340000000000D+01  .000000000000D+00  .139698386192D-08  .810000000000D+02
     .288000000000D+06  .400000000000D+01
26 22  7 27 10  0  0.0  .220507383347D-03  .204636307899D-11  .000000000000D+00
     .840000000000D+02  .133437500000D+02  .504485299552D-08 -.284831298131D+01
     .610947608948D-06  .701043079607D-02  .938586890697D-05  .515378670120D+04
     .295200000000D+06 -.912696123123D-07 -.673124789161D+00 -.141561031342D-06
     .936830102231D+00  .189156250000D+03  .385795149962D+00 -.795783147562D-08
    -.468590947265D-09  .100000000000D+01  .222000000000D+04  .000000000000D+00
     .340000000000D+01  .000000000000D+00  .698491930962D-08  .840000000000D+02
     .288000000000D+06  .400000000000D+01
14 22  7 27 10  0  0.0 -.111124943942D-03  .909494701773D-12  .000000000000D+00
     .740000000000D+02  .102187500000D+02  .468983820773D-08 -.194533018647D+01
     .422820448875D-06  .216750428081D-02  .984594225883D-05  .515365963936D+04
     .295200000000D+06 -.130385160446D-07 -.578312420371D+00 -.353902578354D-07
     .951968186873D+00  .187156250000D+03 -.308021075855D+01 -.789961476495D-08
    -.428946438769D-09  .100000000000D+01  .222000000000D+04  .000000000000D+00
     .240000000000D+01  .000000000000D+00 -.791624188423D-08  .330000000000D+03
     .288000000000D+06  .400000000000D+01
11 22  7 27 10  0  0.0 -.103646889329D-04  .000000000000D+00  .000000000000D+00
     .166000000000D+03 -.631250000000D+01  .469733852015D-08  .155184773116D+01
    -.260770320892D-06  .586216337979D-03  .366941094398D-06  .515361209869D+04
     .295200000000D+06  .689178705215D-07  .153263031847D+01 -.130385160446D-07
     .963153826743D+00  .373218750000D+03  .292512281188D+01 -.843606568171D-08
    -.156435087578D-09  .100000000000D+01  .222000000000D+04  .000000000000D+00
     .240000000000D+01  .000000000000D+00 -.838190317154D-08  .166000000000D+03
     .288000000000D+06  .400000000000D+01
23 22  7 27 10  0  0.0 -.346577726305D-04 -.147792889038D-11  .000000000000D+00
     .166000000000D+03 -.132218750000D+03  .392373486788D-08 -.131178588357D+01
    -.671856105328D-05  .240861251950D-02  .757351517677D-05  .515372541618D+04
     .295200000000D+06 -.111758708954D-06  .249800014572D+01 -.670552253723D-07
     .969773591031D+00  .239968750000D+03  .298838493555D+01 -.775389440940D-08
    -.204294223960D-09  .100000000000D+01  .222000000000D+04  .000000000000D+00
     .240000000000D+01  .000000000000D+00 -.838190317154D-08  .934000000000D+03
     .288000000000D+06  .400000000000D+01
18 22  7 27 10  0  0.0  .100720208138D-03 -.117097442853D-10  .000000000000D+00
     .141000000000D+03 -.108437500000D+02  .447875798682D-08 -.230758787253D+00
    -.771135091782D-06  .261018844321D-02  .510364770889D-06  .515372681618D+04
     .295200000000D+06  .204890966415D-07  .149804276283D+01 -.353902578354D-07
     .971761970267D+00  .377375000000D+03  .301747312027D+01 -.832570394184D-08
    -.186079179516D-09  .100000000000D+01  .222000000000D+04  .000000000000D+00
     .240000000000D+01  .000000000000D+00 -.838190317154D-08  .653000000000D+03
     .288000000000D+06  .400000000000D+01
28 22  7 27 10  0  0.0  .337664969265D-03  .261479726760D-11  .000000000000D+00
     .520000000000D+02  .144687500000D+02  .425196282560D-08  .210586991825D+01
     .743195414543D-06  .164836767362D-01  .992231070995D-05  .515366978645D+04
     .295200000000D+06  .251457095146D-06 -.522560116441D+00  .931322574615D-08
     .967677287940D+00  .190281250000D+03 -.127290670853D+01 -.742888087128D-08
    -.515735768179D-09  .100000000000D+01  .222000000000D+04  .000000000000D+00
     .240000000000D+01  .630000000000D+02 -.111758708954D-07  .520000000000D+02
     .288000000000D+06  .400000000000D+01
2  22  7 27  9 59 44.0 -.650568865240D-03  .795807864051D-12  .000000000000D+00
     .200000000000D+01  .155312500000D+02  .477519890620D-08 -.534217842900D+00
     .884756445885D-06  .199697723147D-01  .989064574242D-06  .515487063217D+04
     .295184000000D+06 -.208616256714D-06  .139991893707D+01  .186264514923D-07
     .965976958738D+00  .366375000000D+03 -.140210128315D+01 -.877000816318D-08
     .267868300647D-10  .100000000000D+01  .222000000000D+04  .000000000000D+00
     .240000000000D+01  .000000000000D+00 -.172294676304D-07  .200000000000D+01
     .289200000000D+06  .400000000000D+01
30 22  7 27  9 59 44.0 -.534842722118D-03 -.682121026330D-12  .000000000000D+00
     .400000000000D+01  .221875000000D+01  .543058334845D-08 -.130932026827D+01
     .279396772385D-07  .596006808337D-02  .436045229435D-05  .515372622108D+04
     .295184000000D+06  .968575477600D-07 -.164757658155D+01 -.353902578354D-07
     .935340970123D+00  .276437500000D+03 -.265589274626D+01 -.839570685775D-08
     .192508018732D-09  .100000000000D+01  .222000000000D+04  .000000000000D+00
     .240000000000D+01  .000000000000D+00  .372529029846D-08  .400000000000D+01
     .291090000000D+06  .400000000000D+01
